NORAD_CAT_ID,OBJECT_NAME,OBJECT_TYPE,EPOCH,MEAN_MOTION,ECCENTRICITY,INCLINATION,RA_OF_ASC_NODE,ARG_OF_PERICENTER,MEAN_ANOMALY,BSTAR,MEAN_MOTION_DOT,MEAN_MOTION_DDOT,TLE_LINE0,TLE_LINE1,TLE_LINE2,SEMIMAJOR_AXIS,PERIOD,APOGEE,PERIGEE,DECAYED
53849.0,STARLINK-4770,PAYLOAD,2023-08-25 19:00:33,15.08836529,7.33e-05,53.2163,134.9811,70.2385,289.8686,1.4242e-05,-6.1e-07,0.0,0 STARLINK-4770,1 53849U 22114AH  23237.79205163 -.00000061  00000-0  14242-4 0  9994,2 53849  53.2163 134.9811 0000733  70.2385 289.8686 15.08836529 52502,6917.891,95.438,540.263,539.249,0.0
53849.0,STARLINK-4770,PAYLOAD,2023-08-25 20:35:56,15.0884029,0.0001212,53.2162,134.6845,85.6977,274.4153,3.1957e-05,2.21e-06,0.0,0 STARLINK-4770,1 53849U 22114AH  23237.85828893  .00000221  00000-0  31957-4 0  9991,2 53849  53.2162 134.6845 0001212  85.6977 274.4153 15.08840290 53055,6917.88,95.438,540.583,538.906,0.0
53849.0,STARLINK-4770,PAYLOAD,2023-08-25 23:46:42,15.08844441,0.0001311,53.2167,134.089,97.6913,262.4228,0.00010221,1.339e-05,0.0,0 STARLINK-4770,1 53849U 22114AH  23237.99076458  .00001339  00000-0  10221-3 0  9999,2 53849  53.2167 134.0890 0001311  97.6913 262.4228 15.08844441 52531,6917.867,95.437,540.639,538.825,0.0
53849.0,STARLINK-4770,PAYLOAD,2023-08-26 02:57:28,15.08843667,0.0001344,53.2162,133.4935,94.1951,265.9195,9.9157e-05,1.291e-05,0.0,0 STARLINK-4770,1 53849U 22114AH  23238.12324538  .00001291  00000-0  99157-4 0  9993,2 53849  53.2162 133.4935 0001344  94.1951 265.9195 15.08843667 53091,6917.869,95.437,540.664,538.804,0.0
53849.0,STARLINK-4770,PAYLOAD,2023-08-26 20:26:42,15.0884673,0.0001497,53.2168,130.2194,110.8673,249.2479,-8.9041e-05,-1.705e-05,0.0,0 STARLINK-4770,1 53849U 22114AH  23238.85188574 -.00001705  00000-0 -89041-4 0  9994,2 53849  53.2168 130.2194 0001497 110.8673 249.2479 15.08846730 53202,6917.86,95.437,540.76,538.689,0.0
53849.0,STARLINK-4770,PAYLOAD,2023-08-27 02:48:15,15.08847331,0.0001528,53.2173,129.0303,105.6904,254.4256,-7.5339e-05,-1.487e-05,0.0,0 STARLINK-4770,1 53849U 22114AH  23239.11684412 -.00001487  00000-0 -75339-4 0  9998,2 53849  53.2173 129.0303 0001528 105.6904 254.4256 15.08847331 52703,6917.858,95.437,540.78,538.666,0.0
53849.0,STARLINK-4770,PAYLOAD,2023-08-27 20:17:30,15.08837465,0.0001797,53.2161,125.7602,103.7746,256.3446,-3.786e-05,-8.91e-06,0.0,0 STARLINK-4770,1 53849U 22114AH  23239.84549153 -.00000891  00000-0 -37860-4 0  9995,2 53849  53.2161 125.7602 0001797 103.7746 256.3446 15.08837465 53357,6917.888,95.438,540.996,538.51,0.0
53849.0,STARLINK-4770,PAYLOAD,2023-08-28 09:00:35,15.0883911,0.000138,53.2168,123.3828,105.3627,254.7517,-5.1538e-05,-1.108e-05,0.0,0 STARLINK-4770,1 53849U 22114AH  23240.37541163 -.00001108  00000-0 -51538-4 0  9998,2 53849  53.2168 123.3828 0001380 105.3627 254.7517 15.08839110 52890,6917.883,95.438,540.703,538.793,0.0
53849.0,STARLINK-4770,PAYLOAD,2023-08-28 20:08:17,15.08836252,0.00015,53.217,121.3016,97.7736,262.3426,5.9747e-06,-1.93e-06,0.0,0 STARLINK-4770,1 53849U 22114AH  23240.83909461 -.00000193  00000-0  59747-5 0  9991,2 53849  53.2170 121.3016 0001500  97.7736 262.3426 15.08836252 53506,6917.892,95.438,540.795,538.719,0.0
53849.0,STARLINK-4770,PAYLOAD,2023-08-29 19:59:05,15.0881177,0.0001414,53.2172,116.8424,92.1132,268.0022,0.00032914,4.95e-05,0.0,0 STARLINK-4770,1 53849U 22114AH  23241.83270389  .00004950  00000-0  32914-3 0  9991,2 53849  53.2172 116.8424 0001414  92.1132 268.0022 15.08811770 53652,6917.967,95.439,540.81,538.853,0.0
53849.0,STARLINK-4770,PAYLOAD,2023-08-30 00:45:14,15.0883663,0.0001459,53.2172,115.9495,85.7321,274.3838,7.5015e-05,9.06e-06,0.0,0 STARLINK-4770,1 53849U 22114AH  23242.03141688  .00000906  00000-0  75015-4 0  9990,2 53849  53.2172 115.9495 0001459  85.7321 274.3838 15.08836630 53148,6917.891,95.438,540.765,538.746,0.0
53849.0,STARLINK-4770,PAYLOAD,2023-08-31 00:36:00,15.0884634,0.0001457,53.2167,111.4889,82.548,277.5678,6.501e-05,7.47e-06,0.0,0 STARLINK-4770,1 53849U 22114AH  23243.02501101  .00000747  00000-0  65010-4 0  9997,2 53849  53.2167 111.4889 0001457  82.5480 277.5678 15.08846340 53291,6917.861,95.437,540.734,538.718,0.0
53849.0,STARLINK-4770,PAYLOAD,2023-09-01 00:26:48,15.08840779,0.0001251,53.2135,107.0284,95.5852,264.5283,2.409e-05,9.6e-07,0.0,0 STARLINK-4770,1 53849U 22114AH  23244.01861457  .00000096  00000-0  24090-4 0  9990,2 53849  53.2135 107.0284 0001251  95.5852 264.5283 15.08840779 53440,6917.878,95.438,540.608,538.878,0.0
53849.0,STARLINK-4770,PAYLOAD,2023-09-01 08:23:43,15.08843096,0.0001623,53.2125,105.5418,86.8284,273.2893,5.4228e-05,5.75e-06,0.0,0 STARLINK-4770,1 53849U 22114AH  23244.34981420  .00000575  00000-0  54228-4 0  9997,2 53849  53.2125 105.5418 0001623  86.8284 273.2893 15.08843096 54031,6917.871,95.437,540.859,538.613,0.0
53849.0,STARLINK-4770,PAYLOAD,2023-09-01 21:06:48,15.08850684,0.0001409,53.2161,103.1625,83.7693,276.346,0.00012312,1.673e-05,0.0,0 STARLINK-4770,1 53849U 22114AH  23244.87972410  .00001673  00000-0  12312-3 0  9991,2 53849  53.2161 103.1625 0001409  83.7693 276.3460 15.08850684 54111,6917.848,95.437,540.687,538.738,0.0
53849.0,STARLINK-4770,PAYLOAD,2023-09-02 00:17:34,15.08850886,0.0001625,53.2166,102.5666,86.1616,273.9562,0.00014337,1.995e-05,0.0,0 STARLINK-4770,1 53849U 22114AH  23245.01220195  .00001995  00000-0  14337-3 0  9990,2 53849  53.2166 102.5666 0001625  86.1616 273.9562 15.08850886 53597,6917.847,95.437,540.836,538.588,0.0
53849.0,STARLINK-4770,PAYLOAD,2023-09-02 08:14:30,15.08837819,0.0001418,53.2158,101.0804,92.9803,267.1351,3.4024e-05,2.54e-06,0.0,0 STARLINK-4770,1 53849U 22114AH  23245.34341256  .00000254  00000-0  34024-4 0  9991,2 53849  53.2158 101.0804 0001418  92.9803 267.1351 15.08837819 53647,6917.887,95.438,540.733,538.771,0.0
53849.0,STARLINK-4770,PAYLOAD,2023-09-02 19:22:13,15.08836902,0.0001326,53.2175,98.9982,103.8143,256.2997,-3.3252e-06,-3.41e-06,0.0,0 STARLINK-4770,1 53849U 22114AH  23245.80709504 -.00000341  00000-0 -33252-5 0  9998,2 53849  53.2175  98.9982 0001326 103.8143 256.2997 15.08836902 54259,6917.89,95.438,540.672,538.838,0.0
53849.0,STARLINK-4770,PAYLOAD,2023-09-03 00:08:22,15.08834459,0.0001385,53.2174,98.1067,99.73,260.3849,-2.036e-05,-6.12e-06,0.0,0 STARLINK-4770,1 53849U 22114AH  23246.00581754 -.00000612  00000-0 -20360-4 0  9992,2 53849  53.2174  98.1067 0001385  99.7300 260.3849 15.08834459 53747,6917.897,95.438,540.72,538.804,0.0
53849.0,STARLINK-4770,PAYLOAD,2023-09-03 23:59:08,15.08862906,0.0001674,53.2178,93.6481,97.1852,262.9331,-0.0002759,-4.679e-05,0.0,0 STARLINK-4770,1 53849U 22114AH  23246.99940883 -.00004679  00000-0 -27590-3 0  9990,2 53849  53.2178  93.6481 0001674  97.1852 262.9331 15.08862906 53894,6917.81,95.436,540.833,538.517,0.0
53849.0,STARLINK-4770,PAYLOAD,2023-09-04 06:20:41,15.08851648,0.0001111,53.2177,92.4585,88.7068,271.4051,-0.00014663,-2.621e-05,0.0,0 STARLINK-4770,1 53849U 22114AH  23247.26437019 -.00002621  00000-0 -14663-3 0  9995,2 53849  53.2177  92.4585 0001111  88.7068 271.4051 15.08851648 53936,6917.845,95.437,540.478,538.941,0.0
53849.0,STARLINK-4770,PAYLOAD,2023-09-04 12:42:15,15.08827471,0.0001433,53.2178,91.2692,91.0619,269.0538,6.1619e-05,6.93e-06,0.0,0 STARLINK-4770,1 53849U 22114AH  23247.52934300  .00000693  00000-0  61619-4 0  9998,2 53849  53.2178  91.2692 0001433  91.0619 269.0538 15.08827471 54514,6917.919,95.438,540.775,538.792,0.0
53849.0,STARLINK-4770,PAYLOAD,2023-09-04 20:39:11,15.08818494,0.0001341,53.2181,89.7822,92.2472,267.8674,-7.8703e-07,-3e-06,0.0,0 STARLINK-4770,1 53849U 22114AH  23247.86055450 -.00000300  00000-0 -78703-6 0  9996,2 53849  53.2181  89.7822 0001341  92.2472 267.8674 15.08818494 54021,6917.946,95.439,540.739,538.883,0.0
53849.0,STARLINK-4770,PAYLOAD,2023-09-05 14:08:26,15.08835374,0.0001284,53.2175,86.509,82.5228,277.591,-4.1981e-05,-9.56e-06,0.0,0 STARLINK-4770,1 53849U 22114AH  23248.58919257 -.00000956  00000-0 -41981-4 0  9993,2 53849  53.2175  86.5090 0001284  82.5228 277.5910 15.08835374 54671,6917.895,95.438,540.648,538.871,0.0
53849.0,STARLINK-4770,PAYLOAD,2023-09-05 20:29:58,15.08839109,0.0001273,53.2173,85.3197,84.8825,275.2312,3.3843e-05,2.51e-06,0.0,0 STARLINK-4770,1 53849U 22114AH  23248.85414835  .00000251  00000-0  33843-4 0  9999,2 53849  53.2173  85.3197 0001273  84.8825 275.2312 15.08839109 54176,6917.883,95.438,540.629,538.867,0.0
53849.0,STARLINK-4770,PAYLOAD,2023-09-06 06:02:17,15.08842687,0.0001396,53.2183,83.5363,89.5837,270.5315,9.6506e-05,1.248e-05,0.0,0 STARLINK-4770,1 53849U 22114AH  23249.25158600  .00001248  00000-0  96506-4 0  9991,2 53849  53.2183  83.5363 0001396  89.5837 270.5315 15.08842687 54775,6917.872,95.437,540.703,538.771,0.0
53849.0,STARLINK-4770,PAYLOAD,2023-09-07 05:53:03,15.0884884,0.0001342,53.2173,79.0755,85.676,274.4385,0.0002525,3.734e-05,0.0,0 STARLINK-4770,1 53849U 22114AH  23250.24517989  .00003734  00000-0  25250-3 0  9990,2 53849  53.2173  79.0755 0001342  85.6760 274.4385 15.08848840 54386,6917.853,95.437,540.647,538.79,0.0
53849.0,STARLINK-4770,PAYLOAD,2023-09-07 12:14:36,15.08847992,0.0001506,53.2145,77.8863,90.7394,269.3771,0.00018668,2.685e-05,0.0,0 STARLINK-4770,1 53849U 22114AH  23250.51014101  .00002685  00000-0  18668-3 0  9997,2 53849  53.2145  77.8863 0001506  90.7394 269.3771 15.08847992 54966,6917.856,95.437,540.763,538.679,0.0
53849.0,STARLINK-4770,PAYLOAD,2023-09-08 18:26:55,15.08847088,0.0001471,53.2182,72.2372,86.4111,273.705,-1.4181e-05,-5.14e-06,0.0,0 STARLINK-4770,1 53849U 22114AH  23251.76870276 -.00000514  00000-0 -14181-4 0  9996,2 53849  53.2182  72.2372 0001471  86.4111 273.7050 15.08847088 54618,6917.859,95.437,540.741,538.706,0.0
53849.0,STARLINK-4770,PAYLOAD,2023-09-09 11:56:10,15.0884205,0.0001357,53.218,68.9636,89.6348,270.48,7.3363e-05,8.8e-06,0.0,0 STARLINK-4770,1 53849U 22114AH  23252.49734160  .00000880  00000-0  73363-4 0  9999,2 53849  53.2180  68.9636 0001357  89.6348 270.4800 15.08842050 55264,6917.874,95.437,540.678,538.8,0.0
